TOMORROW-S3             
1 62392U 24247R   26068.49782200  .00007664  00000+0  28858-3 0  9991
2 62392  44.9999 117.9871 0000396 320.9462  39.1392 15.27672122 67708
STARLINK-32744          
1 62509U 25003Y   26068.00696371  .00035310  00000+0  12858-2 0  9993
2 62509  43.0018 293.1311 0001370 268.9979  91.0716 15.27597765 66449
